[{"OBJECT_NAME":"STARLINK-33682","OBJECT_ID":"2025-069A","EPOCH":"2025-08-16T02:57:20.230848","MEAN_MOTION":15.39650532,"ECCENTRICITY":0.0001551,"INCLINATION":53.1662,"RA_OF_ASC_NODE":19.2996,"ARG_OF_PERICENTER":251.4036,"MEAN_ANOMALY":108.6801,"EPHEMERIS_TYPE":0,"CLASSIFICATION_TYPE":"U","NORAD_CAT_ID":63433,"ELEMENT_SET_NO":999,"REV_AT_EPOCH":2190,"BSTAR":0.00076519,"MEAN_MOTION_DOT":0.0003036,"MEAN_MOTION_DDOT":0},{"OBJECT_NAME":"STARLINK-33710","OBJECT_ID":"2025-069B","EPOCH":"2025-08-16T03:04:30.921024","MEAN_MOTION":15.39656665,"ECCENTRICITY":8.98e-5,"INCLINATION":53.1605,"RA_OF_ASC_NODE":19.3338,"ARG_OF_PERICENTER":89.3293,"MEAN_ANOMALY":270.7815,"EPHEMERIS_TYPE":0,"CLASSIFICATION_TYPE":"U","NORAD_CAT_ID":63434,"ELEMENT_SET_NO":999,"REV_AT_EPOCH":2189,"BSTAR":0.0013061,"MEAN_MOTION_DOT":0.00052265,"MEAN_MOTION_DDOT":0},{"OBJECT_NAME":"STARLINK-33733","OBJECT_ID":"2025-069C","EPOCH":"2025-08-16T02:51:08.029152","MEAN_MOTION":15.39650098,"ECCENTRICITY":6.68e-5,"INCLINATION":53.1592,"RA_OF_ASC_NODE":19.2726,"ARG_OF_PERICENTER":292.4437,"MEAN_ANOMALY":67.6497,"EPHEMERIS_TYPE":0,"CLASSIFICATION_TYPE":"U","NORAD_CAT_ID":63435,"ELEMENT_SET_NO":999,"REV_AT_EPOCH":2185,"BSTAR":0.00098987,"MEAN_MOTION_DOT":0.00039439,"MEAN_MOTION_DDOT":0},{"OBJECT_NAME":"STARLINK-33638","OBJECT_ID":"2025-069D","EPOCH":"2025-08-16T10:25:08.701536","MEAN_MOTION":15.38826972,"ECCENTRICITY":0.0008651,"INCLINATION":53.1564,"RA_OF_ASC_NODE":17.6864,"ARG_OF_PERICENTER":93.9746,"MEAN_ANOMALY":266.2247,"EPHEMERIS_TYPE":0,"CLASSIFICATION_TYPE":"U","NORAD_CAT_ID":63436,"ELEMENT_SET_NO":999,"REV_AT_EPOCH":2194,"BSTAR":0.0010534,"MEAN_MOTION_DOT":0.00040922,"MEAN_MOTION_DDOT":0},{"OBJECT_NAME":"STARLINK-33726","OBJECT_ID":"2025-069E","EPOCH":"2025-08-16T02:57:50.531328","MEAN_MOTION":15.39657155,"ECCENTRICITY":0.0003742,"INCLINATION":53.1626,"RA_OF_ASC_NODE":19.3008,"ARG_OF_PERICENTER":78.2751,"MEAN_ANOMALY":281.8673,"EPHEMERIS_TYPE":0,"CLASSIFICATION_TYPE":"U","NORAD_CAT_ID":63437,"ELEMENT_SET_NO":999,"REV_AT_EPOCH":2185,"BSTAR":0.00078928,"MEAN_MOTION_DOT":0.00031344,"MEAN_MOTION_DDOT":0},{"OBJECT_NAME":"STARLINK-33681","OBJECT_ID":"2025-069F","EPOCH":"2025-08-15T17:23:35.897856","MEAN_MOTION":15.39659539,"ECCENTRICITY":0.000154,"INCLINATION":53.1609,"RA_OF_ASC_NODE":21.0775,"ARG_OF_PERICENTER":92.9837,"MEAN_ANOMALY":267.1344,"EPHEMERIS_TYPE":0,"CLASSIFICATION_TYPE":"U","NORAD_CAT_ID":63438,"ELEMENT_SET_NO":999,"REV_AT_EPOCH":2183,"BSTAR":0.0011935,"MEAN_MOTION_DOT":0.00047701,"MEAN_MOTION_DDOT":0},{"OBJECT_NAME":"STARLINK-33730","OBJECT_ID":"2025-069G","EPOCH":"2025-08-16T10:11:47.581728","MEAN_MOTION":15.39636697,"ECCENTRICITY":0.0002334,"INCLINATION":53.1586,"RA_OF_ASC_NODE":17.6272,"ARG_OF_PERICENTER":81.9936,"MEAN_ANOMALY":278.1334,"EPHEMERIS_TYPE":0,"CLASSIFICATION_TYPE":"U","NORAD_CAT_ID":63439,"ELEMENT_SET_NO":999,"REV_AT_EPOCH":2195,"BSTAR":0.0010188,"MEAN_MOTION_DOT":0.00040593,"MEAN_MOTION_DDOT":0},{"OBJECT_NAME":"STARLINK-33743","OBJECT_ID":"2025-069H","EPOCH":"2025-08-16T10:18:27.828000","MEAN_MOTION":15.39655431,"ECCENTRICITY":0.0001758,"INCLINATION":53.1576,"RA_OF_ASC_NODE":17.658,"ARG_OF_PERICENTER":86.5145,"MEAN_ANOMALY":273.6061,"EPHEMERIS_TYPE":0,"CLASSIFICATION_TYPE":"U","NORAD_CAT_ID":63440,"ELEMENT_SET_NO":999,"REV_AT_EPOCH":2184,"BSTAR":0.0013295,"MEAN_MOTION_DOT":0.00053214,"MEAN_MOTION_DDOT":0},{"OBJECT_NAME":"STARLINK-33715","OBJECT_ID":"2025-069J","EPOCH":"2025-08-16T10:04:57.477216","MEAN_MOTION":15.39656257,"ECCENTRICITY":0.0001095,"INCLINATION":53.1623,"RA_OF_ASC_NODE":16.8836,"ARG_OF_PERICENTER":326.8351,"MEAN_ANOMALY":33.2585,"EPHEMERIS_TYPE":0,"CLASSIFICATION_TYPE":"U","NORAD_CAT_ID":63441,"ELEMENT_SET_NO":999,"REV_AT_EPOCH":2195,"BSTAR":0.0011123,"MEAN_MOTION_DOT":0.00044404,"MEAN_MOTION_DDOT":0},{"OBJECT_NAME":"STARLINK-33762","OBJECT_ID":"2025-069K","EPOCH":"2025-08-16T03:04:02.417664","MEAN_MOTION":15.39643349,"ECCENTRICITY":9.91e-5,"INCLINATION":53.1604,"RA_OF_ASC_NODE":19.3283,"ARG_OF_PERICENTER":78.6039,"MEAN_ANOMALY":281.5077,"EPHEMERIS_TYPE":0,"CLASSIFICATION_TYPE":"U","NORAD_CAT_ID":63442,"ELEMENT_SET_NO":999,"REV_AT_EPOCH":2189,"BSTAR":0.0013113,"MEAN_MOTION_DOT":0.00052453,"MEAN_MOTION_DDOT":0},{"OBJECT_NAME":"STARLINK-33753","OBJECT_ID":"2025-069L","EPOCH":"2025-08-16T10:24:40.277664","MEAN_MOTION":15.39654211,"ECCENTRICITY":0.0001517,"INCLINATION":53.1578,"RA_OF_ASC_NODE":17.6836,"ARG_OF_PERICENTER":83.0431,"MEAN_ANOMALY":277.0747,"EPHEMERIS_TYPE":0,"CLASSIFICATION_TYPE":"U","NORAD_CAT_ID":63443,"ELEMENT_SET_NO":999,"REV_AT_EPOCH":2194,"BSTAR":0.00086264,"MEAN_MOTION_DOT":0.000343,"MEAN_MOTION_DDOT":0},{"OBJECT_NAME":"STARLINK-33747","OBJECT_ID":"2025-069M","EPOCH":"2025-08-16T09:58:24.068640","MEAN_MOTION":15.3965312,"ECCENTRICITY":0.000146,"INCLINATION":53.1606,"RA_OF_ASC_NODE":17.5673,"ARG_OF_PERICENTER":90.3099,"MEAN_ANOMALY":269.8073,"EPHEMERIS_TYPE":0,"CLASSIFICATION_TYPE":"U","NORAD_CAT_ID":63444,"ELEMENT_SET_NO":999,"REV_AT_EPOCH":2189,"BSTAR":0.00074103,"MEAN_MOTION_DOT":0.00029388,"MEAN_MOTION_DDOT":0},{"OBJECT_NAME":"STARLINK-33659","OBJECT_ID":"2025-069N","EPOCH":"2025-08-16T10:11:18.164256","MEAN_MOTION":15.39646239,"ECCENTRICITY":0.0002524,"INCLINATION":53.1565,"RA_OF_ASC_NODE":17.6226,"ARG_OF_PERICENTER":100.0152,"MEAN_ANOMALY":260.1137,"EPHEMERIS_TYPE":0,"CLASSIFICATION_TYPE":"U","NORAD_CAT_ID":63445,"ELEMENT_SET_NO":999,"REV_AT_EPOCH":2189,"BSTAR":0.0008098,"MEAN_MOTION_DOT":0.00032158,"MEAN_MOTION_DDOT":0},{"OBJECT_NAME":"STARLINK-33746","OBJECT_ID":"2025-069P","EPOCH":"2025-08-16T09:45:01.844640","MEAN_MOTION":15.3963395,"ECCENTRICITY":0.00013,"INCLINATION":53.16,"RA_OF_ASC_NODE":17.5077,"ARG_OF_PERICENTER":90.7479,"MEAN_ANOMALY":269.3675,"EPHEMERIS_TYPE":0,"CLASSIFICATION_TYPE":"U","NORAD_CAT_ID":63446,"ELEMENT_SET_NO":999,"REV_AT_EPOCH":2190,"BSTAR":0.00045495,"MEAN_MOTION_DOT":0.00017849,"MEAN_MOTION_DDOT":0},{"OBJECT_NAME":"STARLINK-33799","OBJECT_ID":"2025-069Q","EPOCH":"2025-08-16T09:51:42.979104","MEAN_MOTION":15.39632224,"ECCENTRICITY":0.0001197,"INCLINATION":53.1612,"RA_OF_ASC_NODE":17.5374,"ARG_OF_PERICENTER":71.3412,"MEAN_ANOMALY":288.7723,"EPHEMERIS_TYPE":0,"CLASSIFICATION_TYPE":"U","NORAD_CAT_ID":63447,"ELEMENT_SET_NO":999,"REV_AT_EPOCH":2184,"BSTAR":0.00068835,"MEAN_MOTION_DOT":0.00027243,"MEAN_MOTION_DDOT":0},{"OBJECT_NAME":"STARLINK-33797","OBJECT_ID":"2025-069R","EPOCH":"2025-08-16T10:04:36.992640","MEAN_MOTION":15.39640234,"ECCENTRICITY":0.0001738,"INCLINATION":53.1593,"RA_OF_ASC_NODE":17.5947,"ARG_OF_PERICENTER":84.8738,"MEAN_ANOMALY":275.2465,"EPHEMERIS_TYPE":0,"CLASSIFICATION_TYPE":"U","NORAD_CAT_ID":63448,"ELEMENT_SET_NO":999,"REV_AT_EPOCH":2190,"BSTAR":0.0008759,"MEAN_MOTION_DOT":0.00034819,"MEAN_MOTION_DDOT":0},{"OBJECT_NAME":"STARLINK-33798","OBJECT_ID":"2025-069S","EPOCH":"2025-08-16T10:00:01.999584","MEAN_MOTION":15.30745598,"ECCENTRICITY":0.0001637,"INCLINATION":53.1603,"RA_OF_ASC_NODE":16.2502,"ARG_OF_PERICENTER":80.2731,"MEAN_ANOMALY":224.3873,"EPHEMERIS_TYPE":0,"CLASSIFICATION_TYPE":"U","NORAD_CAT_ID":63449,"ELEMENT_SET_NO":999,"REV_AT_EPOCH":2169,"BSTAR":-0.02908,"MEAN_MOTION_DOT":-0.00810969,"MEAN_MOTION_DDOT":0}]
