STARLINK-33682          
1 63433U 25069A   25228.12315082  .00030360  00000+0  76519-3 0  9994
2 63433  53.1662  19.2996 0001551 251.4036 108.6801 15.39650532 21908
STARLINK-33710          
1 63434U 25069B   25228.12813566  .00052265  00000+0  13061-2 0  9995
2 63434  53.1605  19.3338 0000898  89.3293 270.7815 15.39656665 21890
STARLINK-33733          
1 63435U 25069C   25228.11884293  .00039439  00000+0  98987-3 0  9999
2 63435  53.1592  19.2726 0000668 292.4437  67.6497 15.39650098 21857
STARLINK-33638          
1 63436U 25069D   25228.43412849  .00040922  00000+0  10534-2 0  9999
2 63436  53.1564  17.6864 0008651  93.9746 266.2247 15.38826972 21944
STARLINK-33726          
1 63437U 25069E   25228.12350152  .00031344  00000+0  78928-3 0  9994
2 63437  53.1626  19.3008 0003742  78.2751 281.8673 15.39657155 21853
STARLINK-33681          
1 63438U 25069F   25227.72472104  .00047701  00000+0  11935-2 0  9990
2 63438  53.1609  21.0775 0001540  92.9837 267.1344 15.39659539 21836
STARLINK-33730          
1 63439U 25069G   25228.42485627  .00040593  00000+0  10188-2 0  9994
2 63439  53.1586  17.6272 0002334  81.9936 278.1334 15.39636697 21958
STARLINK-33743          
1 63440U 25069H   25228.42948875  .00053214  00000+0  13295-2 0  9991
2 63440  53.1576  17.6580 0001758  86.5145 273.6061 15.39655431 21845
STARLINK-33715          
1 63441U 25069J   25228.42010969  .00044404  00000+0  11123-2 0  9995
2 63441  53.1623  16.8836 0001095 326.8351  33.2585 15.39656257 21957
STARLINK-33762          
1 63442U 25069K   25228.12780576  .00052453  00000+0  13113-2 0  9995
2 63442  53.1604  19.3283 0000991  78.6039 281.5077 15.39643349 21895
STARLINK-33753          
1 63443U 25069L   25228.43379951  .00034300  00000+0  86264-3 0  9990
2 63443  53.1578  17.6836 0001517  83.0431 277.0747 15.39654211 21942
STARLINK-33747          
1 63444U 25069M   25228.41555635  .00029388  00000+0  74103-3 0  9993
2 63444  53.1606  17.5673 0001460  90.3099 269.8073 15.39653120 21894
STARLINK-33659          
1 63445U 25069N   25228.42451579  .00032158  00000+0  80980-3 0  9996
2 63445  53.1565  17.6226 0002524 100.0152 260.1137 15.39646239 21893
STARLINK-33746          
1 63446U 25069P   25228.40627135  .00017849  00000+0  45495-3 0  9990
2 63446  53.1600  17.5077 0001300  90.7479 269.3675 15.39633950 21901
STARLINK-33799          
1 63447U 25069Q   25228.41091411  .00027243  00000+0  68835-3 0  9996
2 63447  53.1612  17.5374 0001197  71.3412 288.7723 15.39632224 21846
STARLINK-33797          
1 63448U 25069R   25228.41987260  .00034819  00000+0  87590-3 0  9999
2 63448  53.1593  17.5947 0001738  84.8738 275.2465 15.39640234 21903
STARLINK-33798          
1 63449U 25069S   25228.41668981 -.00810969  00000+0 -29080-1 0  9994
2 63449  53.1603  16.2502 0001637  80.2731 224.3873 15.30745598 21694
